[{"OBJECT_NAME":"STARLINK-11233 [DTC]","OBJECT_ID":"2024-164M","EPOCH":"2025-09-14T22:33:57.993984","MEAN_MOTION":15.69706141,"ECCENTRICITY":0.00011234,"INCLINATION":53.1592,"RA_OF_ASC_NODE":97.782,"ARG_OF_PERICENTER":87.31,"MEAN_ANOMALY":272.8047,"EPHEMERIS_TYPE":0,"CLASSIFICATION_TYPE":"U","NORAD_CAT_ID":61061,"ELEMENT_SET_NO":999,"REV_AT_EPOCH":5781,"BSTAR":1.068923e-6,"MEAN_MOTION_DOT":-4.59e-6,"MEAN_MOTION_DDOT":0},{"OBJECT_NAME":"STARLINK-11236 [DTC]","OBJECT_ID":"2024-164N","EPOCH":"2025-09-15T06:05:18.491136","MEAN_MOTION":15.69723027,"ECCENTRICITY":4.147e-5,"INCLINATION":53.1581,"RA_OF_ASC_NODE":96.18,"ARG_OF_PERICENTER":124.8687,"MEAN_ANOMALY":235.237,"EPHEMERIS_TYPE":0,"CLASSIFICATION_TYPE":"U","NORAD_CAT_ID":61062,"ELEMENT_SET_NO":999,"REV_AT_EPOCH":5786,"BSTAR":4.1417904e-5,"MEAN_MOTION_DOT":4.435e-5,"MEAN_MOTION_DDOT":0},{"OBJECT_NAME":"STARLINK-32350","OBJECT_ID":"2024-164P","EPOCH":"2025-09-15T05:26:43.844640","MEAN_MOTION":15.3020299,"ECCENTRICITY":0.00012559,"INCLINATION":53.1607,"RA_OF_ASC_NODE":186.1094,"ARG_OF_PERICENTER":84.3106,"MEAN_ANOMALY":275.8038,"EPHEMERIS_TYPE":0,"CLASSIFICATION_TYPE":"U","NORAD_CAT_ID":61063,"ELEMENT_SET_NO":999,"REV_AT_EPOCH":5661,"BSTAR":2.279057e-5,"MEAN_MOTION_DOT":3.16e-6,"MEAN_MOTION_DDOT":0},{"OBJECT_NAME":"STARLINK-32378","OBJECT_ID":"2024-164Q","EPOCH":"2025-09-15T02:23:11.284224","MEAN_MOTION":15.30200118,"ECCENTRICITY":0.00012046,"INCLINATION":53.1599,"RA_OF_ASC_NODE":186.7367,"ARG_OF_PERICENTER":90.601,"MEAN_ANOMALY":269.5129,"EPHEMERIS_TYPE":0,"CLASSIFICATION_TYPE":"U","NORAD_CAT_ID":61064,"ELEMENT_SET_NO":999,"REV_AT_EPOCH":5659,"BSTAR":-3.3497002e-5,"MEAN_MOTION_DOT":-1.351e-5,"MEAN_MOTION_DDOT":0},{"OBJECT_NAME":"STARLINK-32321","OBJECT_ID":"2024-164R","EPOCH":"2025-09-15T05:44:58.340832","MEAN_MOTION":15.30197434,"ECCENTRICITY":0.00012432,"INCLINATION":53.1602,"RA_OF_ASC_NODE":186.1911,"ARG_OF_PERICENTER":105.2618,"MEAN_ANOMALY":254.8521,"EPHEMERIS_TYPE":0,"CLASSIFICATION_TYPE":"U","NORAD_CAT_ID":61065,"ELEMENT_SET_NO":999,"REV_AT_EPOCH":5661,"BSTAR":8.690626e-6,"MEAN_MOTION_DOT":-1.02e-6,"MEAN_MOTION_DDOT":0},{"OBJECT_NAME":"STARLINK-32381","OBJECT_ID":"2024-164S","EPOCH":"2025-09-14T23:43:57.482400","MEAN_MOTION":15.30191781,"ECCENTRICITY":0.00016236,"INCLINATION":53.1575,"RA_OF_ASC_NODE":187.4673,"ARG_OF_PERICENTER":95.5674,"MEAN_ANOMALY":264.5512,"EPHEMERIS_TYPE":0,"CLASSIFICATION_TYPE":"U","NORAD_CAT_ID":61066,"ELEMENT_SET_NO":999,"REV_AT_EPOCH":5657,"BSTAR":1.2245668e-5,"MEAN_MOTION_DOT":3.0e-8,"MEAN_MOTION_DDOT":0},{"OBJECT_NAME":"STARLINK-32385","OBJECT_ID":"2024-164U","EPOCH":"2025-09-15T05:40:24.813984","MEAN_MOTION":15.30195483,"ECCENTRICITY":0.00011531,"INCLINATION":53.1609,"RA_OF_ASC_NODE":186.1698,"ARG_OF_PERICENTER":94.247,"MEAN_ANOMALY":265.8662,"EPHEMERIS_TYPE":0,"CLASSIFICATION_TYPE":"U","NORAD_CAT_ID":61068,"ELEMENT_SET_NO":999,"REV_AT_EPOCH":5661,"BSTAR":9.768842e-6,"MEAN_MOTION_DOT":-7.0e-7,"MEAN_MOTION_DDOT":0},{"OBJECT_NAME":"STARLINK-32380","OBJECT_ID":"2024-164V","EPOCH":"2025-09-15T05:35:51.192960","MEAN_MOTION":15.30197174,"ECCENTRICITY":0.00012925,"INCLINATION":53.1609,"RA_OF_ASC_NODE":186.1496,"ARG_OF_PERICENTER":87.5099,"MEAN_ANOMALY":272.605,"EPHEMERIS_TYPE":0,"CLASSIFICATION_TYPE":"U","NORAD_CAT_ID":61069,"ELEMENT_SET_NO":999,"REV_AT_EPOCH":5661,"BSTAR":2.8247118e-5,"MEAN_MOTION_DOT":4.77e-6,"MEAN_MOTION_DDOT":0},{"OBJECT_NAME":"STARLINK-32375","OBJECT_ID":"2024-164W","EPOCH":"2025-09-15T04:15:29.021472","MEAN_MOTION":15.30191342,"ECCENTRICITY":0.00015903,"INCLINATION":53.1585,"RA_OF_ASC_NODE":186.5097,"ARG_OF_PERICENTER":87.8037,"MEAN_ANOMALY":272.3146,"EPHEMERIS_TYPE":0,"CLASSIFICATION_TYPE":"U","NORAD_CAT_ID":61070,"ELEMENT_SET_NO":999,"REV_AT_EPOCH":5660,"BSTAR":3.858134e-6,"MEAN_MOTION_DOT":-2.45e-6,"MEAN_MOTION_DDOT":0},{"OBJECT_NAME":"STARLINK-11209 [DTC]","OBJECT_ID":"2024-171A","EPOCH":"2025-09-15T04:49:31.501056","MEAN_MOTION":15.69711031,"ECCENTRICITY":0.00011614,"INCLINATION":53.1591,"RA_OF_ASC_NODE":321.5577,"ARG_OF_PERICENTER":74.8733,"MEAN_ANOMALY":285.2414,"EPHEMERIS_TYPE":0,"CLASSIFICATION_TYPE":"U","NORAD_CAT_ID":61200,"ELEMENT_SET_NO":999,"REV_AT_EPOCH":5774,"BSTAR":7.75851e-7,"MEAN_MOTION_DOT":-4.95e-6,"MEAN_MOTION_DDOT":0},{"OBJECT_NAME":"STARLINK-11257 [DTC]","OBJECT_ID":"2024-171B","EPOCH":"2025-09-13T22:08:47.164704","MEAN_MOTION":15.69706929,"ECCENTRICITY":9.218e-5,"INCLINATION":53.1583,"RA_OF_ASC_NODE":327.7949,"ARG_OF_PERICENTER":79.9309,"MEAN_ANOMALY":280.1813,"EPHEMERIS_TYPE":0,"CLASSIFICATION_TYPE":"U","NORAD_CAT_ID":61201,"ELEMENT_SET_NO":999,"REV_AT_EPOCH":5663,"BSTAR":-9.04953e-7,"MEAN_MOTION_DOT":-6.98e-6,"MEAN_MOTION_DDOT":0},{"OBJECT_NAME":"STARLINK-11309 [DTC]","OBJECT_ID":"2024-171C","EPOCH":"2025-09-14T11:46:52.684320","MEAN_MOTION":15.6970401,"ECCENTRICITY":0.00010168,"INCLINATION":53.159,"RA_OF_ASC_NODE":324.939,"ARG_OF_PERICENTER":90.6909,"MEAN_ANOMALY":269.4225,"EPHEMERIS_TYPE":0,"CLASSIFICATION_TYPE":"U","NORAD_CAT_ID":61202,"ELEMENT_SET_NO":999,"REV_AT_EPOCH":5672,"BSTAR":-4.68072e-7,"MEAN_MOTION_DOT":-6.45e-6,"MEAN_MOTION_DDOT":0},{"OBJECT_NAME":"STARLINK-11292 [DTC]","OBJECT_ID":"2024-171D","EPOCH":"2025-09-14T11:39:48.700512","MEAN_MOTION":15.69704758,"ECCENTRICITY":0.0001168,"INCLINATION":53.1588,"RA_OF_ASC_NODE":324.9044,"ARG_OF_PERICENTER":63.8852,"MEAN_ANOMALY":296.2286,"EPHEMERIS_TYPE":0,"CLASSIFICATION_TYPE":"U","NORAD_CAT_ID":61203,"ELEMENT_SET_NO":999,"REV_AT_EPOCH":5672,"BSTAR":7.814348e-6,"MEAN_MOTION_DOT":3.58e-6,"MEAN_MOTION_DDOT":0},{"OBJECT_NAME":"STARLINK-11302 [DTC]","OBJECT_ID":"2024-171E","EPOCH":"2025-09-15T04:21:16.324416","MEAN_MOTION":15.69699959,"ECCENTRICITY":0.0001288,"INCLINATION":53.1596,"RA_OF_ASC_NODE":321.4205,"ARG_OF_PERICENTER":83.2853,"MEAN_ANOMALY":276.8311,"EPHEMERIS_TYPE":0,"CLASSIFICATION_TYPE":"U","NORAD_CAT_ID":61204,"ELEMENT_SET_NO":999,"REV_AT_EPOCH":5683,"BSTAR":1.7567324e-5,"MEAN_MOTION_DOT":1.539e-5,"MEAN_MOTION_DDOT":0},{"OBJECT_NAME":"STARLINK-11277 [DTC]","OBJECT_ID":"2024-171F","EPOCH":"2025-09-15T04:07:08.292864","MEAN_MOTION":15.69713163,"ECCENTRICITY":9.974e-5,"INCLINATION":53.159,"RA_OF_ASC_NODE":321.3526,"ARG_OF_PERICENTER":76.5945,"MEAN_ANOMALY":283.5184,"EPHEMERIS_TYPE":0,"CLASSIFICATION_TYPE":"U","NORAD_CAT_ID":61205,"ELEMENT_SET_NO":999,"REV_AT_EPOCH":5683,"BSTAR":1.364624e-6,"MEAN_MOTION_DOT":-4.23e-6,"MEAN_MOTION_DDOT":0},{"OBJECT_NAME":"STARLINK-11279 [DTC]","OBJECT_ID":"2024-171G","EPOCH":"2025-09-15T04:00:04.504320","MEAN_MOTION":15.69711371,"ECCENTRICITY":0.00010672,"INCLINATION":53.1591,"RA_OF_ASC_NODE":321.3201,"ARG_OF_PERICENTER":96.9719,"MEAN_ANOMALY":263.142,"EPHEMERIS_TYPE":0,"CLASSIFICATION_TYPE":"U","NORAD_CAT_ID":61206,"ELEMENT_SET_NO":999,"REV_AT_EPOCH":5683,"BSTAR":5.4193e-7,"MEAN_MOTION_DOT":-5.23e-6,"MEAN_MOTION_DDOT":0}]
