STARLINK-11233 [DTC]    
1 61061U 24164M   25257.94025456 -.00000459  00000+0  10689-5 0  9994
2 61061  53.1592  97.7820 0001123  87.3100 272.8047 15.69706141 57811
STARLINK-11236 [DTC]    
1 61062U 24164N   25258.25368624  .00004435  00000+0  41418-4 0  9997
2 61062  53.1581  96.1800 0000414 124.8687 235.2370 15.69723027 57869
STARLINK-32350          
1 61063U 24164P   25258.22689635  .00000316  00000+0  22791-4 0  9990
2 61063  53.1607 186.1094 0001255  84.3106 275.8038 15.30202990 56616
STARLINK-32378          
1 61064U 24164Q   25258.09943616 -.00001351  00000+0 -33497-4 0  9995
2 61064  53.1599 186.7367 0001204  90.6010 269.5129 15.30200118 56592
STARLINK-32321          
1 61065U 24164R   25258.23956413 -.00000102  00000+0  86906-5 0  9997
2 61065  53.1602 186.1911 0001243 105.2618 254.8521 15.30197434 56619
STARLINK-32381          
1 61066U 24164S   25257.98885975  .00000003  00000+0  12246-4 0  9997
2 61066  53.1575 187.4673 0001623  95.5674 264.5512 15.30191781 56575
STARLINK-32385          
1 61068U 24164U   25258.23639831 -.00000070  00000+0  97688-5 0  9995
2 61068  53.1609 186.1698 0001153  94.2470 265.8662 15.30195483 56614
STARLINK-32380          
1 61069U 24164V   25258.23323140  .00000477  00000+0  28247-4 0  9993
2 61069  53.1609 186.1496 0001292  87.5099 272.6050 15.30197174 56613
STARLINK-32375          
1 61070U 24164W   25258.17741923 -.00000245  00000+0  38581-5 0  9998
2 61070  53.1585 186.5097 0001590  87.8037 272.3146 15.30191342 56608
STARLINK-11209 [DTC]    
1 61200U 24171A   25258.20105904 -.00000495  00000+0  77585-6 0  9993
2 61200  53.1591 321.5577 0001161  74.8733 285.2414 15.69711031 57749
STARLINK-11257 [DTC]    
1 61201U 24171B   25256.92276811 -.00000698  00000+0 -90495-6 0  9998
2 61201  53.1583 327.7949 0000921  79.9309 280.1813 15.69706929 56634
STARLINK-11309 [DTC]    
1 61202U 24171C   25257.49088755 -.00000645  00000+0 -46807-6 0  9990
2 61202  53.1590 324.9390 0001016  90.6909 269.4225 15.69704010 56720
STARLINK-11292 [DTC]    
1 61203U 24171D   25257.48598033  .00000358  00000+0  78143-5 0  9991
2 61203  53.1588 324.9044 0001168  63.8852 296.2286 15.69704758 56725
STARLINK-11302 [DTC]    
1 61204U 24171E   25258.18143894  .00001539  00000+0  17567-4 0  9995
2 61204  53.1596 321.4205 0001288  83.2853 276.8311 15.69699959 56837
STARLINK-11277 [DTC]    
1 61205U 24171F   25258.17162376 -.00000423  00000+0  13646-5 0  9998
2 61205  53.1590 321.3526 0000997  76.5945 283.5184 15.69713163 56837
STARLINK-11279 [DTC]    
1 61206U 24171G   25258.16671880 -.00000523  00000+0  54193-6 0  9997
2 61206  53.1591 321.3201 0001067  96.9719 263.1420 15.69711371 56839
